{
  "norad_id": 58713,
  "name": "STARLINK-30973",
  "history": [
    {
      "epoch": "2026-03-28T09:56:41.662176Z",
      "apogee_km": 475.950308654591,
      "perigee_km": 474.5349486936775,
      "latitude_deg": 3.62437177804999e-05,
      "longitude_deg": 167.8490760825443,
      "height_km": 475.99751358394906,
      "semi_major_axis_km": 6853.379628674134,
      "eccentricity": 0.00010326,
      "inclination_deg": 53.1603,
      "raan_deg": 142.8578,
      "arg_perigee_deg": 78.2952,
      "mean_anomaly_deg": 281.8165,
      "mean_motion_rev_day": 15.3019077
    },
    {
      "epoch": "2026-03-29T09:27:29.686176Z",
      "apogee_km": 475.98675385155093,
      "perigee_km": 474.4986109873098,
      "latitude_deg": 1.2518216151835211e-05,
      "longitude_deg": 169.63189981808688,
      "height_km": 476.00057338839764,
      "semi_major_axis_km": 6853.37968241943,
      "eccentricity": 0.00010857,
      "inclination_deg": 53.1589,
      "raan_deg": 138.3064,
      "arg_perigee_deg": 79.1283,
      "mean_anomaly_deg": 280.984,
      "mean_motion_rev_day": 15.30190752
    },
    {
      "epoch": "2026-03-30T10:32:18.646080Z",
      "apogee_km": 475.91868277773574,
      "perigee_km": 474.43973713962714,
      "latitude_deg": -1.872836004508591e-05,
      "longitude_deg": 147.54386780181278,
      "height_km": 476.04431471208426,
      "semi_major_axis_km": 6853.316209958682,
      "eccentricity": 0.0001079,
      "inclination_deg": 53.1597,
      "raan_deg": 133.4524,
      "arg_perigee_deg": 87.4262,
      "mean_anomaly_deg": 272.6862,
      "mean_motion_rev_day": 15.3021201
    },
    {
      "epoch": "2026-03-30T19:56:39.050592Z",
      "apogee_km": 476.0921065798393,
      "perigee_km": 474.3780782195299,
      "latitude_deg": 2.1762997183707343e-07,
      "longitude_deg": 4.251686514733962,
      "height_km": 476.1434367584158,
      "semi_major_axis_km": 6853.372092399684,
      "eccentricity": 0.00012505,
      "inclination_deg": 53.1593,
      "raan_deg": 131.6315,
      "arg_perigee_deg": 90.69,
      "mean_anomaly_deg": 269.4244,
      "mean_motion_rev_day": 15.30193294
    },
    {
      "epoch": "2026-03-31T21:01:31.439712Z",
      "apogee_km": 475.97025421278613,
      "perigee_km": 474.55023030419034,
      "latitude_deg": -2.954118258284186e-05,
      "longitude_deg": -17.850371303616132,
      "height_km": 476.1809406704207,
      "semi_major_axis_km": 6853.3972422584875,
      "eccentricity": 0.0001036,
      "inclination_deg": 53.1592,
      "raan_deg": 126.7778,
      "arg_perigee_deg": 91.8074,
      "mean_anomaly_deg": 268.3045,
      "mean_motion_rev_day": 15.30184871
    },
    {
      "epoch": "2026-04-01T14:16:06.544416Z",
      "apogee_km": 476.22792785290494,
      "perigee_km": 474.36927611764713,
      "latitude_deg": 1.0763382206153408e-06,
      "longitude_deg": 79.45783449222252,
      "height_km": 476.4099356011041,
      "semi_major_axis_km": 6853.435601985276,
      "eccentricity": 0.0001356,
      "inclination_deg": 53.1592,
      "raan_deg": 123.4404,
      "arg_perigee_deg": 103.277,
      "mean_anomaly_deg": 256.8382,
      "mean_motion_rev_day": 15.30172024
    },
    {
      "epoch": "2026-04-02T18:29:03.759360Z",
      "apogee_km": 476.0545737115008,
      "perigee_km": 474.40990216178216,
      "latitude_deg": 8.641809699995895e-06,
      "longitude_deg": 9.59976001551923,
      "height_km": 476.07762722466066,
      "semi_major_axis_km": 6853.369237936641,
      "eccentricity": 0.00011999,
      "inclination_deg": 53.1578,
      "raan_deg": 117.9795,
      "arg_perigee_deg": 86.3364,
      "mean_anomaly_deg": 273.7774,
      "mean_motion_rev_day": 15.3019425
    },
    {
      "epoch": "2026-04-03T11:43:39.211392Z",
      "apogee_km": 476.0124321157973,
      "perigee_km": 474.4912539281995,
      "latitude_deg": 1.4002940359905484e-05,
      "longitude_deg": 106.90689504842156,
      "height_km": 476.1341873536673,
      "semi_major_axis_km": 6853.388843021998,
      "eccentricity": 0.00011098,
      "inclination_deg": 53.1576,
      "raan_deg": 114.6425,
      "arg_perigee_deg": 88.8184,
      "mean_anomaly_deg": 271.2944,
      "mean_motion_rev_day": 15.30187684
    },
    {
      "epoch": "2026-04-04T11:14:26.710080Z",
      "apogee_km": 475.94921903297836,
      "perigee_km": 474.4787640442346,
      "latitude_deg": 3.347046540217519e-05,
      "longitude_deg": 108.69194530223405,
      "height_km": 476.09447391293753,
      "semi_major_axis_km": 6853.350991538607,
      "eccentricity": 0.00010728,
      "inclination_deg": 53.1577,
      "raan_deg": 110.0911,
      "arg_perigee_deg": 88.6276,
      "mean_anomaly_deg": 271.4848,
      "mean_motion_rev_day": 15.30200361
    },
    {
      "epoch": "2026-04-05T07:37:08.931936Z",
      "apogee_km": 475.9558891155011,
      "perigee_km": 474.5482030054409,
      "latitude_deg": 1.0560120797468435e-05,
      "longitude_deg": 158.23389181492408,
      "height_km": 476.0390264788031,
      "semi_major_axis_km": 6853.389046060471,
      "eccentricity": 0.0001027,
      "inclination_deg": 53.1582,
      "raan_deg": 106.1459,
      "arg_perigee_deg": 80.9062,
      "mean_anomaly_deg": 279.2055,
      "mean_motion_rev_day": 15.30187616
    },
    {
      "epoch": "2026-04-06T07:07:56.510112Z",
      "apogee_km": 476.0335352902075,
      "perigee_km": 474.4157307431169,
      "latitude_deg": -2.7456279536114457e-05,
      "longitude_deg": 160.01916565618083,
      "height_km": 476.2829584438844,
      "semi_major_axis_km": 6853.3616330166615,
      "eccentricity": 0.00011803,
      "inclination_deg": 53.1602,
      "raan_deg": 101.5951,
      "arg_perigee_deg": 101.4137,
      "mean_anomaly_deg": 258.6996,
      "mean_motion_rev_day": 15.30196797
    },
    {
      "epoch": "2026-04-07T09:46:50.795040Z",
      "apogee_km": 476.1189590871145,
      "perigee_km": 474.3340690935056,
      "latitude_deg": -4.1267120124290475e-05,
      "longitude_deg": 114.04205381621657,
      "height_km": 476.0576201966272,
      "semi_major_axis_km": 6853.36351409031,
      "eccentricity": 0.00013022,
      "inclination_deg": 53.1609,
      "raan_deg": 96.4386,
      "arg_perigee_deg": 85.6924,
      "mean_anomaly_deg": 274.4225,
      "mean_motion_rev_day": 15.30196167
    },
    {
      "epoch": "2026-04-08T06:09:32.489856Z",
      "apogee_km": 476.1619924702718,
      "perigee_km": 474.3103481071239,
      "latitude_deg": -1.8553620159639574e-05,
      "longitude_deg": 163.58763487814525,
      "height_km": 476.07836993396205,
      "semi_major_axis_km": 6853.373170288698,
      "eccentricity": 0.00013509,
      "inclination_deg": 53.1606,
      "raan_deg": 92.4948,
      "arg_perigee_deg": 86.5426,
      "mean_anomaly_deg": 273.5729,
      "mean_motion_rev_day": 15.30192933
    },
    {
      "epoch": "2026-04-08T23:24:05.151168Z",
      "apogee_km": 476.07284820227596,
      "perigee_km": 474.2512413161785,
      "latitude_deg": -1.0177254325123884e-06,
      "longitude_deg": -99.09436352482777,
      "height_km": 476.07515678283653,
      "semi_major_axis_km": 6853.2990447592265,
      "eccentricity": 0.0001329,
      "inclination_deg": 53.1607,
      "raan_deg": 89.157,
      "arg_perigee_deg": 90.9459,
      "mean_anomaly_deg": 269.1694,
      "mean_motion_rev_day": 15.30217759
    },
    {
      "epoch": "2026-04-10T05:11:08.513664Z",
      "apogee_km": 476.11413603123947,
      "perigee_km": 474.4275123657044,
      "latitude_deg": 2.6957581504267152e-05,
      "longitude_deg": 167.1540470199884,
      "height_km": 476.1957355589013,
      "semi_major_axis_km": 6853.407824198472,
      "eccentricity": 0.00012305,
      "inclination_deg": 53.1609,
      "raan_deg": 83.3926,
      "arg_perigee_deg": 91.8141,
      "mean_anomaly_deg": 268.3001,
      "mean_motion_rev_day": 15.30181327
    },
    {
      "epoch": "2026-04-11T15:40:18.689376Z",
      "apogee_km": 476.0984157220237,
      "perigee_km": 474.4138516897574,
      "latitude_deg": -4.38858147629702e-05,
      "longitude_deg": 1.7720962929521231,
      "height_km": 476.139947780138,
      "semi_major_axis_km": 6853.39313370589,
      "eccentricity": 0.0001229,
      "inclination_deg": 53.1617,
      "raan_deg": 76.7194,
      "arg_perigee_deg": 89.0135,
      "mean_anomaly_deg": 271.1006,
      "mean_motion_rev_day": 15.30186247
    },
    {
      "epoch": "2026-04-12T07:20:50.839008Z",
      "apogee_km": 476.1628555350371,
      "perigee_km": 474.349447707119,
      "latitude_deg": 5.4613117320347455e-05,
      "longitude_deg": 122.96023828027528,
      "height_km": 476.16877151352816,
      "semi_major_axis_km": 6853.393151621078,
      "eccentricity": 0.0001323,
      "inclination_deg": 53.1614,
      "raan_deg": 73.6852,
      "arg_perigee_deg": 90.9151,
      "mean_anomaly_deg": 269.2002,
      "mean_motion_rev_day": 15.30186241
    },
    {
      "epoch": "2026-04-14T14:12:42.696576Z",
      "apogee_km": 476.23668671767064,
      "perigee_km": 474.2450951025721,
      "latitude_deg": 2.0734831447963178e-05,
      "longitude_deg": 7.1224399253483295,
      "height_km": 476.21687044835,
      "semi_major_axis_km": 6853.377890910121,
      "eccentricity": 0.0001453,
      "inclination_deg": 53.1612,
      "raan_deg": 63.0667,
      "arg_perigee_deg": 94.4943,
      "mean_anomaly_deg": 265.6224,
      "mean_motion_rev_day": 15.30191352
    },
    {
      "epoch": "2026-04-15T13:43:30.895104Z",
      "apogee_km": 476.17343112074286,
      "perigee_km": 474.314794162995,
      "latitude_deg": -8.381086906700183e-06,
      "longitude_deg": 8.905632242468682,
      "height_km": 476.1606729957085,
      "semi_major_axis_km": 6853.381112641869,
      "eccentricity": 0.0001356,
      "inclination_deg": 53.1621,
      "raan_deg": 58.5164,
      "arg_perigee_deg": 91.1333,
      "mean_anomaly_deg": 268.9823,
      "mean_motion_rev_day": 15.30190273
    }
  ]
}